OBJECT_NAME,OBJECT_ID,EPOCH,MEAN_MOTION,ECCENTRICITY,INCLINATION,RA_OF_ASC_NODE,ARG_OF_PERICENTER,MEAN_ANOMALY,EPHEMERIS_TYPE,CLASSIFICATION_TYPE,NORAD_CAT_ID,ELEMENT_SET_NO,REV_AT_EPOCH,BSTAR,MEAN_MOTION_DOT,MEAN_MOTION_DDOT,OBJECT_TYPE
STARLINK-32500,2024-207Z,2026-03-21T10:00:01.809504,15.27594929,.00029333,43.0003,219.1336,285.1364,74.9163,0,U,61935,999,7647,.43696299E-3,.11787E-3,0,Active
HAIYANG 4-01,2024-208A,2026-03-21T13:56:44.102400,14.73284326,.00026701,98.0069,89.5257,93.9744,266.1770,0,U,61936,999,7254,.94619624E-4,.562E-5,0,Active
STARLINK-11407 [DTC],2024-209A,2026-03-21T08:35:50.418816,15.69842582,.00013829,53.1568,313.5155,79.1587,280.9587,0,U,61939,999,7857,.21132442E-2,.265235E-2,0,Active
STARLINK-11337 [DTC],2024-209B,2026-03-21T08:28:46.314912,15.69779809,.00013415,53.1567,313.4828,108.7273,251.3891,0,U,61940,999,7855,.15907524E-2,.197352E-2,0,Active
STARLINK-11353 [DTC],2024-209C,2026-03-21T05:18:20.524896,15.69771097,.00010135,53.1556,314.0755,105.4213,254.6917,0,U,61941,999,7849,.81422005E-3,.99496E-3,0,Active
STARLINK-11320 [DTC],2024-209D,2026-03-20T21:33:01.036224,15.69789225,.00009949,53.1564,316.3489,120.4238,239.6878,0,U,61942,999,7843,.13489237E-2,.166703E-2,0,Active
STARLINK-11425 [DTC],2024-209E,2026-03-21T05:04:21.362304,15.69772590,.00008459,53.1566,314.7461,96.1327,263.9787,0,U,61943,999,7848,.38673611E-3,.46649E-3,0,Active
STARLINK-11422 [DTC],2024-209F,2026-03-21T04:57:18.048096,15.69860647,.00023657,53.1565,314.7135,27.9299,332.1846,0,U,61944,999,7848,.26364867E-2,.334096E-2,0,Active
STARLINK-11421 [DTC],2024-209G,2026-03-20T22:43:30.432864,15.69784494,.00014724,53.1573,315.9357,94.3806,265.7380,0,U,61945,999,7844,.11962028E-2,.147387E-2,0,Active
STARLINK-11410 [DTC],2024-209H,2026-03-21T03:11:29.292288,15.69870500,.00006683,53.1568,314.9609,88.8678,271.2417,0,U,61946,999,7851,.28824119E-2,.366956E-2,0,Active
STARLINK-11390 [DTC],2024-209J,2026-03-21T04:36:05.552352,15.69869554,.0000925,53.1572,314.6166,78.1338,281.9783,0,U,61947,999,7852,.17906572E-2,.223776E-2,0,Active
STARLINK-11414 [DTC],2024-209K,2026-03-21T14:49:37.771392,15.69884206,.00018535,53.1567,312.2882,137.7914,222.3247,0,U,61948,999,7859,.30353899E-2,.387636E-2,0,Active
STARLINK-11424 [DTC],2024-209L,2026-03-21T14:56:40.612992,15.69855781,.0000824,53.1567,312.3211,144.7507,215.3565,0,U,61949,999,7855,.22412599E-2,.282077E-2,0,Active
STARLINK-11423 [DTC],2024-209M,2026-03-21T15:10:48.442368,15.69843632,.00013525,53.1561,312.3882,138.9477,221.1643,0,U,61950,999,7859,.2465558E-2,.311312E-2,0,Active
STARLINK-11395 [DTC],2024-209N,2026-03-21T08:57:01.407744,15.69837851,.00010042,53.1565,313.6080,67.9971,292.1154,0,U,61951,999,7851,.20500032E-2,.256973E-2,0,Active
STARLINK-32572,2024-209P,2026-03-21T08:11:18.600000,15.30219886,.00014383,53.1602,88.0804,85.9236,274.1929,0,U,61952,999,7668,.62940986E-3,.1834E-3,0,Active
STARLINK-32585,2024-209Q,2026-03-21T04:23:50.753184,15.30214906,.0001382,53.1578,89.2250,100.9566,259.1590,0,U,61953,999,7665,.12233357E-2,.36065E-3,0,Active
STARLINK-32574,2024-209R,2026-03-21T10:55:17.851872,15.30208728,.00020857,53.1582,88.0758,86.8311,273.2929,0,U,61954,999,7671,.12988701E-2,.38319E-3,0,Active
STARLINK-32583,2024-209S,2026-03-21T10:30:57.356640,15.30262464,.00013631,53.1579,87.9686,87.1744,272.9413,0,U,61955,999,7671,.11607749E-2,.34245E-3,0,Active
STARLINK-32273,2024-209T,2026-03-21T05:10:48.475776,15.30215845,.000114,53.1608,88.7169,86.7376,273.3755,0,U,61956,999,7666,.74106636E-3,.21664E-3,0,Active
STARLINK-32359,2024-209U,2026-03-21T07:13:43.501152,15.30208707,.00012398,53.1581,88.5377,85.8025,274.3117,0,U,61957,999,7669,.98920296E-3,.29061E-3,0,Active
STARLINK-32566,2024-209V,2026-03-21T06:40:17.039136,15.30249217,.00014917,53.1597,88.3930,102.1644,257.9524,0,U,61958,999,7669,.75125322E-3,.2199E-3,0,Active
STARLINK-32499,2024-210A,2026-03-21T10:52:05.055456,15.27634923,.00019817,43.0004,112.9956,281.6135,78.4494,0,U,61959,999,7672,.15109516E-2,.41622E-3,0,Active
STARLINK-32372,2024-210B,2026-03-21T11:03:09.753984,15.27635022,.00017951,43.0025,113.0551,282.1703,77.8947,0,U,61960,999,7658,.15802535E-2,.43554E-3,0,Active
STARLINK-32452,2024-210C,2026-03-21T12:51:40.406976,15.27637144,.00014746,43.0008,105.8355,267.1520,92.9163,0,U,61961,999,7680,.91358135E-3,.25007E-3,0,Active
STARLINK-32458,2024-210D,2026-03-21T10:41:53.929248,15.27623642,.00018194,43.0029,99.0906,259.7638,100.3009,0,U,61962,999,7687,.11666314E-2,.32024E-3,0,Active
STARLINK-32487,2024-210E,2026-03-21T11:45:43.238592,15.27618042,.00014852,43.0006,113.2663,268.8729,91.1952,0,U,61963,999,7671,.88222998E-3,.24123E-3,0,Active
STARLINK-32513,2024-210F,2026-03-21T10:25:14.898144,15.27607288,.00015657,43.0040,99.0031,259.9663,100.1012,0,U,61964,999,7687,.12526426E-2,.34398E-3,0,Active
STARLINK-32514,2024-210G,2026-03-21T11:23:05.735616,15.27591402,.00014239,43.0022,106.2307,277.7115,82.3575,0,U,61965,999,7679,.68303526E-3,.18587E-3,0,Active
