STARLINK-32500          
1 61935U 24207Z   26080.41668761  .00011787  00000+0  43696-3 0  9998
2 61935  43.0003 219.1336 0002933 285.1364  74.9163 15.27594929 76474
HAIYANG 4-01            
1 61936U 24208A   26080.58106600  .00000562  00000+0  94620-4 0  9990
2 61936  98.0069  89.5257 0002670  93.9744 266.1770 14.73284326 72543
STARLINK-11407 [DTC]    
1 61939U 24209A   26080.35822244  .00265235  00000+0  21132-2 0  9994
2 61939  53.1568 313.5155 0001382  79.1587 280.9587 15.69842582 78578
STARLINK-11337 [DTC]    
1 61940U 24209B   26080.35331383  .00197352  00000+0  15908-2 0  9993
2 61940  53.1567 313.4828 0001341 108.7273 251.3891 15.69779809 78550
STARLINK-11353 [DTC]    
1 61941U 24209C   26080.22107089  .00099496  00000+0  81422-3 0  9999
2 61941  53.1556 314.0755 0001013 105.4213 254.6917 15.69771097 78498
STARLINK-11320 [DTC]    
1 61942U 24209D   26079.89792866  .00166703  00000+0  13489-2 0  9997
2 61942  53.1564 316.3489 0000994 120.4238 239.6878 15.69789225 78433
STARLINK-11425 [DTC]    
1 61943U 24209E   26080.21135836  .00046649  00000+0  38674-3 0  9994
2 61943  53.1566 314.7461 0000845  96.1327 263.9787 15.69772590 78482
STARLINK-11422 [DTC]    
1 61944U 24209F   26080.20645889  .00334096  00000+0  26365-2 0  9997
2 61944  53.1565 314.7135 0002365  27.9299 332.1846 15.69860647 78485
STARLINK-11421 [DTC]    
1 61945U 24209G   26079.94688001  .00147387  00000+0  11962-2 0  9992
2 61945  53.1573 315.9357 0001472  94.3806 265.7380 15.69784494 78449
STARLINK-11410 [DTC]    
1 61946U 24209H   26080.13297792  .00366956  00000+0  28824-2 0  9999
2 61946  53.1568 314.9609 0000668  88.8678 271.2417 15.69870500 78519
STARLINK-11390 [DTC]    
1 61947U 24209J   26080.19173093  .00223776  00000+0  17907-2 0  9995
2 61947  53.1572 314.6166 0000925  78.1338 281.9783 15.69869554 78523
STARLINK-11414 [DTC]    
1 61948U 24209K   26080.61779828  .00387636  00000+0  30354-2 0  9998
2 61948  53.1567 312.2882 0001853 137.7914 222.3247 15.69884206 78592
STARLINK-11424 [DTC]    
1 61949U 24209L   26080.62269228  .00282077  00000+0  22413-2 0  9998
2 61949  53.1567 312.3211 0000824 144.7507 215.3565 15.69855781 78550
STARLINK-11423 [DTC]    
1 61950U 24209M   26080.63250512  .00311312  00000+0  24656-2 0  9993
2 61950  53.1561 312.3882 0001352 138.9477 221.1643 15.69843632 78596
STARLINK-11395 [DTC]    
1 61951U 24209N   26080.37293296  .00256973  00000+0  20500-2 0  9996
2 61951  53.1565 313.6080 0001004  67.9971 292.1154 15.69837851 78512
STARLINK-32572          
1 61952U 24209P   26080.34118750  .00018340  00000+0  62941-3 0  9995
2 61952  53.1602  88.0804 0001438  85.9236 274.1929 15.30219886 76683
STARLINK-32585          
1 61953U 24209Q   26080.18322631  .00036065  00000+0  12233-2 0  9995
2 61953  53.1578  89.2250 0001382 100.9566 259.1590 15.30214906 76658
STARLINK-32574          
1 61954U 24209R   26080.45506773  .00038319  00000+0  12989-2 0  9999
2 61954  53.1582  88.0758 0002085  86.8311 273.2929 15.30208728 76710
STARLINK-32583          
1 61955U 24209S   26080.43816385  .00034245  00000+0  11608-2 0  9992
2 61955  53.1579  87.9686 0001363  87.1744 272.9413 15.30262464 76718
STARLINK-32273          
1 61956U 24209T   26080.21583884  .00021664  00000+0  74107-3 0  9999
2 61956  53.1608  88.7169 0001140  86.7376 273.3755 15.30215845 76665
STARLINK-32359          
1 61957U 24209U   26080.30119793  .00029061  00000+0  98920-3 0  9992
2 61957  53.1581  88.5377 0001239  85.8025 274.3117 15.30208707 76690
STARLINK-32566          
1 61958U 24209V   26080.27797499  .00021990  00000+0  75125-3 0  9999
2 61958  53.1597  88.3930 0001491 102.1644 257.9524 15.30249217 76691
STARLINK-32499          
1 61959U 24210A   26080.45283629  .00041622  00000+0  15110-2 0  9998
2 61959  43.0004 112.9956 0001981 281.6135  78.4494 15.27634923 76721
STARLINK-32372          
1 61960U 24210B   26080.46052956  .00043554  00000+0  15803-2 0  9993
2 61960  43.0025 113.0551 0001795 282.1703  77.8947 15.27635022 76580
STARLINK-32452          
1 61961U 24210C   26080.53588434  .00025007  00000+0  91358-3 0  9990
2 61961  43.0008 105.8355 0001474 267.1520  92.9163 15.27637144 76807
STARLINK-32458          
1 61962U 24210D   26080.44576307  .00032024  00000+0  11666-2 0  9997
2 61962  43.0029  99.0906 0001819 259.7638 100.3009 15.27623642 76875
STARLINK-32487          
1 61963U 24210E   26080.49008378  .00024123  00000+0  88223-3 0  9996
2 61963  43.0006 113.2663 0001485 268.8729  91.1952 15.27618042 76716
STARLINK-32513          
1 61964U 24210F   26080.43420021  .00034398  00000+0  12526-2 0  9991
2 61964  43.0040  99.0031 0001565 259.9663 100.1012 15.27607288 76877
STARLINK-32514          
1 61965U 24210G   26080.47437194  .00018587  00000+0  68304-3 0  9993
2 61965  43.0022 106.2307 0001423 277.7115  82.3575 15.27591402 76794
